BEESAT-4                
1 41619U 16040W   22340.37475485  .00018361  00000+0  50899-3 0  9998
2 41619  97.1943  26.7827 0007047 208.7079 151.3779 15.36968970347077
CAS-2T & KS-1Q          
1 41847U 16066G   22340.46862016  .00000747  00000+0  12021-3 0  9993
2 41847  98.5315  44.8024 0363475  55.2454 308.2391 14.38937016319081
NAYIF-1 (EO-88)         
1 42017U 17008BX  22340.44105272  .00023479  00000+0  55595-3 0  9992
2 42017  97.2488  44.5769 0003813   7.8980 352.2327 15.41770901323508
ZHUHAI-1 02 (CAS-4B)    
1 42759U 17034B   22340.60981087  .00004077  00000+0  23652-3 0  9990
2 42759  43.0159 102.8506 0011485 297.0442 179.9873 15.13397325302424
ZHUHAI-1 01 (CAS-4A)    
1 42761U 17034D   22340.43621523  .00003845  00000+0  22324-3 0  9997
2 42761  43.0166 102.4691 0011813 297.7167 171.3009 15.13483933302408
MAX VALIER SAT          
1 42778U 17036P   22340.38028036  .00010972  00000+0  37582-3 0  9992
2 42778  97.1849  15.7060 0011791  76.5272 283.7283 15.30308383303165
RADFXSAT (FOX-1B)       
1 43017U 17073E   22339.66359565  .00006233  00000+0  46022-3 0  9997
2 43017  97.6538 226.7795 0243878 346.9259  12.5704 14.82789158272477
FOX-1D (AO-92)          
1 43137U 18004AC  22339.45961158  .00014877  00000+0  46247-3 0  9991
2 43137  97.3543  53.3320 0008381 111.3215 248.8923 15.33397344272516
DIWATA-2B               
1 43678U 18084H   22340.63624497  .00001065  00000+0  10938-3 0  9996
2 43678  97.9943 116.2193 0011308  78.5046 281.7389 14.92527888223534
ES'HAIL 2               
1 43700U 18090A   22339.76301560  .00000156  00000+0  00000+0 0  9999
2 43700   0.0214 346.3108 0001669 296.3442  92.3354  1.00271254 14744
FOX-1CLIFF (AO-95)      
1 43770U 18099N   22339.92410021  .00003591  00000+0  31323-3 0  9998
2 43770  97.6018  41.7258 0015293  64.7885 295.4920 14.97381991218665
ITASAT 1                
1 43786U 18099AE  22340.44154247  .00002504  00000+0  21982-3 0  9992
2 43786  97.6041  43.2318 0015325  54.5565 305.7085 14.97400405218782
JY1SAT (JO-97)          
1 43803U 18099AX  22340.12471818  .00003773  00000+0  32267-3 0  9990
2 43803  97.6007  42.7469 0015544  56.4110 303.8594 14.98114509218765
UWE-4                   
1 43880U 18111E   22340.39781012  .00003644  00000+0  30299-3 0  9999
2 43880  97.6563 243.6876 0011946 103.9275 256.3277 14.99274234213457
NEXUS (FO-99)           
1 43937U 19003F   22340.12248169  .00016320  00000+0  47017-3 0  9996
2 43937  97.1132   7.1364 0016159 257.3813 102.5625 15.35681856216270
PSAT2 (NO-104)          
1 44354U 19036R   22340.45898760  .00124156 -23420-5  60037-3 0  9992
2 44354  28.5205  45.8379 0143296 142.5979 218.4698 15.67359190191401
JAISAT-1                
1 44419U 19038F   22339.87585906  .00012235  00000+0  55875-3 0  9995
2 44419  97.6562 311.9321 0015579 258.4544 101.4942 15.20633120189077
DUCHIFAT-3              
1 44854U 19089C   22340.59929296  .00003641  00000+0  27488-3 0  9999
2 44854  36.9639 158.8596 0006385 191.7266 221.7558 15.02478733163829
CAS-6 (TIANQIN 1)       
1 44881U 19093C   22340.49842181  .00000569  00000+0  78366-4 0  9998
2 44881  97.8808  57.1398 0014831 351.8750   8.2225 14.81955423160251
RS-44 & BREEZE-KM R/B   
1 44909U 19096E   22339.80024160  .00000017  00000+0  29732-4 0  9995
2 44909  82.5196 116.4521 0216479 279.1191  78.5476 12.79716855137423
ORBITAL FACTORY 2 (OF-2)
1 45113U 19071C   22339.30177075  .00061334  00000+0  79144-3 0  9995
2 45113  51.6341 292.3052 0011636  85.1168 275.1153 15.58316218159880
HUSKYSAT-1 (HO-107)     
1 45119U 19071J   22340.45045471  .00045122  00000+0  64948-3 0  9996
2 45119  51.6354 288.6899 0011286  85.0167 275.2112 15.55516539160025
BY70-2                  
1 45857U 20042B   22340.52227920  .00007922  00000+0  99504-3 0  9996
2 45857  97.9445  55.8865 0008908 274.3472  85.6778 14.82363148130926
SALSAT                  
1 46495U 20068K   22339.84475037  .00003083  00000+0  21867-3 0  9991
2 46495  97.7490 281.4332 0017889  59.4287 300.8701 15.05408091119965
BY70-3                  
1 46839U 20079N   22340.46555859  .00044097  00000+0  71484-3 0  9996
2 46839  97.1811  51.1580 0004972  79.3985  44.2865 15.52637261116827
RADFXSAT-2 (AO-109)     
1 47311U 21002C   22339.85811656  .00012048  00000+0  42827-3 0  9990
2 47311  60.6852  75.5790 0038538  78.8711 281.6709 15.28737162104636
UVSQ-SAT                
1 47438U 21006AB  22340.40965253  .00006907  00000+0  34215-3 0  9999
2 47438  97.4164  35.9135 0012286  43.8088 316.4119 15.18013669103341
DIY-1 (ARDUIQUBE)       
1 47963U 21022AH  22340.18853360  .00024688  00000+0  11262-2 0  9992
2 47963  97.5180 240.0985 0011650 262.8257  97.1654 15.20557360 92977
XW-3 (CAS-9)            
1 50466U 21131B   22340.59965590  .00000296  00000+0  11117-3 0  9998
2 50466  98.5693  57.6669 0004283  10.2446 349.8827 14.38587379 49667
TEVEL-3                 
1 50988U 22002E   22340.63421927  .00009057  00000+0  45908-3 0  9990
2 50988  97.4629  44.8321 0009234 177.7686 339.5188 15.17149365 49496
TEVEL-8                 
1 50989U 22002F   22340.29909524  .00009044  00000+0  45923-3 0  9990
2 50989  97.4643  44.5378 0009328 178.2025 248.9521 15.17087027 49444
TEVEL-5                 
1 50998U 22002Q   22340.38287244  .00009309  00000+0  46432-3 0  9998
2 50998  97.4620  44.7873 0010640 175.0974 248.7056 15.17693655 49472
TEVEL-6                 
1 50999U 22002R   22340.66178532  .00009488  00000+0  47299-3 0  9999
2 50999  97.4613  45.0592 0010680 174.0774 337.6683 15.17706593 49513
TEVEL-1                 
1 51013U 22002AF  22340.29339164  .00009010  00000+0  45719-3 0  9992
2 51013  97.4622  44.4633 0009155 178.5759 249.7302 15.17113082 49445
TEVEL-7                 
1 51062U 22002CG  22340.30078000  .00009101  00000+0  46212-3 0  9997
2 51062  97.4635  44.5212 0009428 177.4074 247.7484 15.17086210 49449
TEVEL-4                 
1 51063U 22002CH  22340.30252425  .00009045  00000+0  45956-3 0  9994
2 51063  97.4633  44.5152 0009398 177.9886 247.1525 15.17068299 49440
TEVEL-2                 
1 51069U 22002CP  22340.63589556  .00009085  00000+0  46056-3 0  9990
2 51069  97.4628  44.8136 0009139 177.7456 339.1039 15.17144901 49491
GREENCUBE               
1 53106U 22080B   22340.05508021 -.00000003  00000+0  00000+0 0  9991
2 53106  70.1737  26.8203 0008955 228.4776 131.5115  6.42557513  9347
YUZGU 9 (RS3S)          
1 53308U 98067TT  22340.51879073  .00114503  00000+0  94607-3 0  9992
2 53308  51.6343 195.3281 0008179 174.6976 185.4110 15.69400450 21554
YUZGU 7 (RS1S)          
1 53309U 98067TU  22340.49651640  .00123535  00000+0  98982-3 0  9993
2 53309  51.6332 195.1721 0008585 178.7383 181.3638 15.70102053 21503
YUZGU 11 (RS5S)         
1 53310U 98067TV  22340.45395568  .00119197  00000+0  98440-3 0  9993
2 53310  51.6345 195.6442 0008412 176.1940 183.9123 15.69390716 21526
YUZGU 12 (RS6S)         
1 53311U 98067TW  22340.53675964  .00130973  00000+0  10144-2 0  9993
2 53311  51.6331 194.6889 0008199 176.1063 184.0000 15.70891892 21567
TSIOLKOVSKY-RYAZAN 1 (*)
1 53312U 98067TX  22340.56353990  .00120245  00000+0  97643-3 0  9990
2 53312  51.6338 194.8771 0008666 179.2460 180.8552 15.69791829 21508
TSIOLKOVSKY-RYAZAN 2 (*)
1 53313U 98067TY  22340.49504656  .00119430  00000+0  96464-3 0  9994
2 53313  51.6342 195.1707 0008238 180.1702 179.9294 15.69928414 21540
YUZGU 10 (RS4S)         
1 53321U 98067TZ  22340.50873797  .00117153  00000+0  95290-3 0  9996
2 53321  51.6339 195.2601 0008359 176.5407 183.5649 15.69767106 21548
RS29S (SXC3-2110 CYCLO*)
1 53373U 22096D   22340.49526675  .00012796  00000+0  48059-3 0  9998
2 53373  97.4282 241.2046 0003171  90.0318  17.2607 15.27319778 18177
RS32S (SXC3-212 MONITO*)
1 53374U 22096E   22340.48743957  .00011820  00000+0  44351-3 0  9990
2 53374  97.4268 241.2098 0003440  86.6172  21.4724 15.27369355 18170
RS34S (SXC3-218 KUZBAS*)
1 53375U 22096F   22340.68781782  .00010758  00000+0  40885-3 0  9998
2 53375  97.4279 241.3826 0003363  90.9862 326.5144 15.26972832 18209
RS23S (SXC3-21 UTMN)    
1 53376U 22096G   22340.50932300  .00010951  00000+0  41521-3 0  9997
2 53376  97.4279 241.2135 0003415  87.8673  86.7636 15.27042741 18170
RS28S (SXC3-214 MIET-A*)
1 53377U 22096H   22340.49615773  .00010012  00000+0  38068-3 0  9998
2 53377  97.4284 241.2042 0003446  85.7246  19.3528 15.26974683 18171
RS26S (KAI-1)           
1 53378U 22096J   22340.36337661  .00009071  00000+0  34734-3 0  9991
2 53378  97.4282 241.0571 0003450  83.1106 342.8010 15.26770989 18158
RS19S (SXC3-219 ISOI)   
1 53381U 22096M   22340.33551852  .00009641  00000+0  36103-3 0  9997
2 53381  97.4274 241.1241 0005690  44.9092  97.8913 15.27481465 18153
RS21S (CUBESX-HSE-2)    
1 53383U 22096P   22340.45829034  .00010958  00000+0  40911-3 0  9997
2 53383  97.4284 241.2574 0006031  43.9410  71.2584 15.27543831 18177
RS30S (SXC3-217 SIREN)  
1 53384U 22096Q   22340.65311177  .00009872  00000+0  37070-3 0  9999
2 53384  97.4281 241.4414 0005889  42.7927  44.4453 15.27381915 18204
RS20S (GEOSCAN-EDELVEIS)
1 53385U 22096R   22340.48590448  .00013609  00000+0  49580-3 0  9993
2 53385  97.4269 241.3558 0006416  41.7800  43.7785 15.28294136 18215
RS33S (SXC3-215 VIZARD) 
1 53386U 22096S   22340.32867446  .00015665  00000+0  55641-3 0  9991
2 53386  97.4270 241.2825 0007301  41.1539  99.7939 15.29090888 18188
